[{"OBJECT_NAME":"TJS-4","OBJECT_ID":"2019-070A","EPOCH":"2026-03-09T15:56:55.200192","MEAN_MOTION":1.00279855,"ECCENTRICITY":0.00015689,"INCLINATION":0.0569,"RA_OF_ASC_NODE":280.8388,"ARG_OF_PERICENTER":91.476,"MEAN_ANOMALY":117.8148,"EPHEMERIS_TYPE":0,"CLASSIFICATION_TYPE":"U","NORAD_CAT_ID":44637,"ELEMENT_SET_NO":999,"REV_AT_EPOCH":2347,"BSTAR":0,"MEAN_MOTION_DOT":-1.7e-6,"MEAN_MOTION_DDOT":0},{"OBJECT_NAME":"INMARSAT 6-F1","OBJECT_ID":"2021-128A","EPOCH":"2026-03-09T22:47:41.998560","MEAN_MOTION":1.00271402,"ECCENTRICITY":2.111e-5,"INCLINATION":0.0148,"RA_OF_ASC_NODE":188.7486,"ARG_OF_PERICENTER":224.832,"MEAN_ANOMALY":179.7236,"EPHEMERIS_TYPE":0,"CLASSIFICATION_TYPE":"U","NORAD_CAT_ID":50319,"ELEMENT_SET_NO":999,"REV_AT_EPOCH":1526,"BSTAR":0,"MEAN_MOTION_DOT":-1.7e-6,"MEAN_MOTION_DDOT":0}]
